FREGAT DEB              
1 49271U 11037PF  25334.10220946  .00006404  00000+0  14226-1 0  9995
2 49271  51.6202 236.7991 0869985 196.4494 160.6386 12.34314267200375
HRC MONOBLOCK CAMERA    
1 66052U 98067XR  25334.04299049  .00038473  00000+0  61067-3 0  9990
2 66052  51.6304 204.7561 0004565 133.5581 226.5789 15.52962161  6868
CZ-2F R/B               
1 66646U 25272B   25330.47076975  .00449059  75676-5  29319-3 0  9998
2 66646  41.4431 114.9009 0121079 133.7676 227.3272 16.01945612   217
SL-4 R/B                
1 66665U 25275B   25333.34681791  .08397088  12512-4  39285-3 0  9993
2 66665  51.6501 207.6669 0004581  68.9636 291.1882 16.43094745   331
